start=new Date('2021-11-10T00:00:00.000Z').valueOf();
sats=[{"BSTAR":"0.00019040000000","EPHEMERIS_TYPE":"0","CENTER_NAME":"EARTH","EPOCH":"2021-11-09T18:50:11.911776","TLE_LINE1":"1 48466U 21040AQ  21313.78486009  .00002556  00000-0  19040-3 0  9992","LAUNCH_DATE":"2021-05-09","CLASSIFICATION_TYPE":"U","RA_OF_ASC_NODE":"88.5700","COUNTRY_CODE":"US","OBJECT_ID":"2021-040AQ","ELEMENT_SET_NO":"999","SITE":"AFETR","REV_AT_EPOCH":"2822","INCLINATION":"53.0597","MEAN_MOTION_DOT":"0.00002556","NORAD_CAT_ID":"48466","ECCENTRICITY":"0.00016830","SEMIMAJOR_AXIS":"6925.347","FILE":"3210180","REF_FRAME":"TEME","MEAN_MOTION":"15.06400440","MEAN_ANOMALY":"269.0522","OBJECT_TYPE":"PAYLOAD","PERIOD":"95.592","TLE_LINE2":"2 48466  53.0597  88.5700 0001683  91.0660 269.0522 15.06400440 28221","APOAPSIS":"548.378","MEAN_MOTION_DDOT":"0.0000000000000","DECAY_DATE":null,"ARG_OF_PERICENTER":"91.0660","GP_ID":"189362396","TIME_SYSTEM":"UTC","OBJECT_NAME":"STARLINK-2687","PERIAPSIS":"546.047","MEAN_ELEMENT_THEORY":"SGP4","RCS_SIZE":"LARGE"},{"SITE":"AFETR","REV_AT_EPOCH":"2820","INCLINATION":"53.0563","MEAN_MOTION_DOT":"-0.00000734","ECCENTRICITY":"0.00015110","NORAD_CAT_ID":"48467","SEMIMAJOR_AXIS":"6925.397","BSTAR":"-0.00003036700000","EPHEMERIS_TYPE":"0","CENTER_NAME":"EARTH","EPOCH":"2021-11-09T16:16:15.946176","LAUNCH_DATE":"2021-05-09","TLE_LINE1":"1 48467U 21040AR  21313.67796234 -.00000734  00000-0 -30367-4 0  9999","CLASSIFICATION_TYPE":"U","RA_OF_ASC_NODE":"89.0520","COUNTRY_CODE":"US","OBJECT_ID":"2021-040AR","ELEMENT_SET_NO":"999","GP_ID":"189363105","TIME_SYSTEM":"UTC","OBJECT_NAME":"STARLINK-2659","PERIAPSIS":"546.216","MEAN_ELEMENT_THEORY":"SGP4","RCS_SIZE":"LARGE","FILE":"3210180","REF_FRAME":"TEME","MEAN_ANOMALY":"268.4568","MEAN_MOTION":"15.06384146","OBJECT_TYPE":"PAYLOAD","PERIOD":"95.593","TLE_LINE2":"2 48467  53.0563  89.0520 0001511  91.6594 268.4568 15.06384146 28208","MEAN_MOTION_DDOT":"0.0000000000000","APOAPSIS":"548.309","DECAY_DATE":null,"ARG_OF_PERICENTER":"91.6594"},{"MEAN_MOTION_DOT":"-0.00000807","REV_AT_EPOCH":"2822","INCLINATION":"53.0553","SITE":"AFETR","SEMIMAJOR_AXIS":"6925.373","NORAD_CAT_ID":"48468","ECCENTRICITY":"0.00016350","LAUNCH_DATE":"2021-05-09","TLE_LINE1":"1 48468U 21040AS  21313.79222474 -.00000807  00000-0 -35285-4 0  9998","CENTER_NAME":"EARTH","EPOCH":"2021-11-09T19:00:48.217536","BSTAR":"-0.00003528500000","EPHEMERIS_TYPE":"0","ELEMENT_SET_NO":"999","COUNTRY_CODE":"US","OBJECT_ID":"2021-040AS","CLASSIFICATION_TYPE":"U","RA_OF_ASC_NODE":"88.5304","GP_ID":"189362514","PERIAPSIS":"546.106","MEAN_ELEMENT_THEORY":"SGP4","RCS_SIZE":"LARGE","OBJECT_NAME":"STARLINK-2685","TIME_SYSTEM":"UTC","TLE_LINE2":"2 48468  53.0553  88.5304 0001635  76.5908 283.5263 15.06391919 28228","OBJECT_TYPE":"PAYLOAD","PERIOD":"95.593","MEAN_ANOMALY":"283.5263","MEAN_MOTION":"15.06391919","FILE":"3210180","REF_FRAME":"TEME","ARG_OF_PERICENTER":"76.5908","DECAY_DATE":null,"APOAPSIS":"548.371","MEAN_MOTION_DDOT":"0.0000000000000"},{"ARG_OF_PERICENTER":"75.7869","DECAY_DATE":null,"MEAN_MOTION_DDOT":"0.0000000000000","APOAPSIS":"548.321","TLE_LINE2":"2 48469  53.0570  89.0770 0001560  75.7869 284.3293 15.06391075 28208","OBJECT_TYPE":"PAYLOAD","PERIOD":"95.593","MEAN_ANOMALY":"284.3293","MEAN_MOTION":"15.06391075","FILE":"3210180","REF_FRAME":"TEME","PERIAPSIS":"546.161","MEAN_ELEMENT_THEORY":"SGP4","RCS_SIZE":"LARGE","OBJECT_NAME":"STARLINK-2661","TIME_SYSTEM":"UTC","GP_ID":"189362987","ELEMENT_SET_NO":"999","COUNTRY_CODE":"US","OBJECT_ID":"2021-040AT","CLASSIFICATION_TYPE":"U","RA_OF_ASC_NODE":"89.0770","LAUNCH_DATE":"2021-05-09","TLE_LINE1":"1 48469U 21040AT  21313.67429207  .00002433  00000-0  18225-3 0  9998","CENTER_NAME":"EARTH","EPOCH":"2021-11-09T16:10:58.834848","BSTAR":"0.00018225000000","EPHEMERIS_TYPE":"0","SEMIMAJOR_AXIS":"6925.376","NORAD_CAT_ID":"48469","ECCENTRICITY":"0.00015600","MEAN_MOTION_DOT":"0.00002433","INCLINATION":"53.0570","REV_AT_EPOCH":"2820","SITE":"AFETR"},{"MEAN_ANOMALY":"269.8024","MEAN_MOTION":"15.06386041","FILE":"3210180","REF_FRAME":"TEME","TLE_LINE2":"2 48470  53.0558  88.4847 0001549  90.3143 269.8024 15.06386041 28217","OBJECT_TYPE":"PAYLOAD","PERIOD":"95.593","APOAPSIS":"548.329","MEAN_MOTION_DDOT":"0.0000000000000","ARG_OF_PERICENTER":"90.3143","DECAY_DATE":null,"GP_ID":"189362751","OBJECT_NAME":"STARLINK-2675","TIME_SYSTEM":"UTC","PERIAPSIS":"546.184","MEAN_ELEMENT_THEORY":"SGP4","RCS_SIZE":"LARGE","BSTAR":"0.00013618000000","EPHEMERIS_TYPE":"0","TLE_LINE1":"1 48470U 21040AU  21313.80331201  .00001747  00000-0  13618-3 0  9999","LAUNCH_DATE":"2021-05-09","CENTER_NAME":"EARTH","EPOCH":"2021-11-09T19:16:46.157664","COUNTRY_CODE":"US","OBJECT_ID":"2021-040AU","CLASSIFICATION_TYPE":"U","RA_OF_ASC_NODE":"88.4847","ELEMENT_SET_NO":"999","SITE":"AFETR","MEAN_MOTION_DOT":"0.00001747","INCLINATION":"53.0558","REV_AT_EPOCH":"2821","SEMIMAJOR_AXIS":"6925.391","NORAD_CAT_ID":"48470","ECCENTRICITY":"0.00015490"},{"ELEMENT_SET_NO":"999","OBJECT_ID":"2021-040AV","COUNTRY_CODE":"US","RA_OF_ASC_NODE":"88.5276","CLASSIFICATION_TYPE":"U","LAUNCH_DATE":"2021-05-09","TLE_LINE1":"1 48471U 21040AV  21313.79591331 -.00000171  00000-0  74211-5 0  9999","EPOCH":"2021-11-09T19:06:06.909984","CENTER_NAME":"EARTH","BSTAR":"0.00000742110000","EPHEMERIS_TYPE":"0","SEMIMAJOR_AXIS":"6925.380","NORAD_CAT_ID":"48471","ECCENTRICITY":"0.00013690","MEAN_MOTION_DOT":"-0.00000171","INCLINATION":"53.0567","REV_AT_EPOCH":"2821","SITE":"AFETR","ARG_OF_PERICENTER":"80.7331","DECAY_DATE":null,"APOAPSIS":"548.193","MEAN_MOTION_DDOT":"0.0000000000000","TLE_LINE2":"2 48471  53.0567  88.5276 0001369  80.7331 279.3812 15.06389705 28218","PERIOD":"95.593","OBJECT_TYPE":"PAYLOAD","MEAN_MOTION":"15.06389705","MEAN_ANOMALY":"279.3812","REF_FRAME":"TEME","FILE":"3210180","RCS_SIZE":"LARGE","MEAN_ELEMENT_THEORY":"SGP4","PERIAPSIS":"546.297","OBJECT_NAME":"STARLINK-2684","TIME_SYSTEM":"UTC","GP_ID":"189363224"},{"CLASSIFICATION_TYPE":"U","RA_OF_ASC_NODE":"88.6119","COUNTRY_CODE":"US","OBJECT_ID":"2021-040AW","ELEMENT_SET_NO":"999","EPHEMERIS_TYPE":"0","BSTAR":"0.00010478000000","CENTER_NAME":"EARTH","EPOCH":"2021-11-09T18:39:36.075168","LAUNCH_DATE":"2021-05-09","TLE_LINE1":"1 48472U 21040AW  21313.77750087  .00001279  00000-0  10478-3 0  9995","NORAD_CAT_ID":"48472","ECCENTRICITY":"0.00011830","SEMIMAJOR_AXIS":"6925.384","SITE":"AFETR","REV_AT_EPOCH":"2820","INCLINATION":"53.0530","MEAN_MOTION_DOT":"0.00001279","MEAN_MOTION_DDOT":"0.0000000000000","APOAPSIS":"548.068","DECAY_DATE":null,"ARG_OF_PERICENTER":"93.3198","FILE":"3210180","REF_FRAME":"TEME","MEAN_ANOMALY":"266.7926","MEAN_MOTION":"15.06388479","OBJECT_TYPE":"PAYLOAD","PERIOD":"95.593","TLE_LINE2":"2 48472  53.0530  88.6119 0001183  93.3198 266.7926 15.06388479 28203","TIME_SYSTEM":"UTC","OBJECT_NAME":"STARLINK-2722","MEAN_ELEMENT_THEORY":"SGP4","PERIAPSIS":"546.430","RCS_SIZE":"LARGE","GP_ID":"189362869"},{"BSTAR":"0.00026908000000","EPHEMERIS_TYPE":"0","EPOCH":"2021-11-09T17:57:07.635456","CENTER_NAME":"EARTH","LAUNCH_DATE":"2021-05-09","TLE_LINE1":"1 48473U 21040AX  21313.74800504  .00003729  00000-0  26908-3 0  9990","RA_OF_ASC_NODE":"88.7496","CLASSIFICATION_TYPE":"U","OBJECT_ID":"2021-040AX","COUNTRY_CODE":"US","ELEMENT_SET_NO":"999","SITE":"AFETR","REV_AT_EPOCH":"2820","INCLINATION":"53.0559","MEAN_MOTION_DOT":"0.00003729","NORAD_CAT_ID":"48473","ECCENTRICITY":"0.00016020","SEMIMAJOR_AXIS":"6925.349","REF_FRAME":"TEME","FILE":"3210180","MEAN_MOTION":"15.06399977","MEAN_ANOMALY":"292.3716","PERIOD":"95.592","OBJECT_TYPE":"PAYLOAD","TLE_LINE2":"2 48473  53.0559  88.7496 0001602  67.7443 292.3716 15.06399977 28205","APOAPSIS":"548.323","MEAN_MOTION_DDOT":"0.0000000000000","DECAY_DATE":null,"ARG_OF_PERICENTER":"67.7443","GP_ID":"189362633","TIME_SYSTEM":"UTC","OBJECT_NAME":"STARLINK-2658","RCS_SIZE":"LARGE","MEAN_ELEMENT_THEORY":"SGP4","PERIAPSIS":"546.104"},{"ARG_OF_PERICENTER":"86.4421","DECAY_DATE":null,"MEAN_MOTION_DDOT":"0.0000000000000","APOAPSIS":"548.241","TLE_LINE2":"2 48474  53.0511  90.3858 0001410  86.4421 273.6729 15.06383463 28148","OBJECT_TYPE":"PAYLOAD","PERIOD":"95.593","MEAN_ANOMALY":"273.6729","MEAN_MOTION":"15.06383463","FILE":"3210161","REF_FRAME":"TEME","PERIAPSIS":"546.288","MEAN_ELEMENT_THEORY":"SGP4","RCS_SIZE":"LARGE","OBJECT_NAME":"STARLINK-2697","TIME_SYSTEM":"UTC","GP_ID":"189339715","ELEMENT_SET_NO":"999","COUNTRY_CODE":"US","OBJECT_ID":"2021-040AY","CLASSIFICATION_TYPE":"U","RA_OF_ASC_NODE":"90.3858","LAUNCH_DATE":"2021-05-09","TLE_LINE1":"1 48474U 21040AY  21313.38310754  .00001182  00000-0  98281-4 0  9999","CENTER_NAME":"EARTH","EPOCH":"2021-11-09T09:11:40.491456","EPHEMERIS_TYPE":"0","BSTAR":"0.00009828100000","SEMIMAJOR_AXIS":"6925.399","NORAD_CAT_ID":"48474","ECCENTRICITY":"0.00014100","MEAN_MOTION_DOT":"0.00001182","INCLINATION":"53.0511","REV_AT_EPOCH":"2814","SITE":"AFETR"},{"BSTAR":"-0.00002676300000","EPHEMERIS_TYPE":"0","CENTER_NAME":"EARTH","EPOCH":"2021-11-09T19:37:57.340992","LAUNCH_DATE":"2021-05-09","TLE_LINE1":"1 48475U 21040AZ  21313.81802478 -.00000680  00000-0 -26763-4 0  9997","CLASSIFICATION_TYPE":"U","RA_OF_ASC_NODE":"88.4229","COUNTRY_CODE":"US","OBJECT_ID":"2021-040AZ","ELEMENT_SET_NO":"999","SITE":"AFETR","REV_AT_EPOCH":"2821","INCLINATION":"53.0556","MEAN_MOTION_DOT":"-0.00000680","NORAD_CAT_ID":"48475","ECCENTRICITY":"0.00015120","SEMIMAJOR_AXIS":"6925.353","FILE":"3210180","REF_FRAME":"TEME","MEAN_MOTION":"15.06398594","MEAN_ANOMALY":"266.5740","OBJECT_TYPE":"PAYLOAD","PERIOD":"95.592","TLE_LINE2":"2 48475  53.0556  88.4229 0001512  93.5422 266.5740 15.06398594 28214","MEAN_MOTION_DDOT":"0.0000000000000","APOAPSIS":"548.265","DECAY_DATE":null,"ARG_OF_PERICENTER":"93.5422","GP_ID":"189363106","TIME_SYSTEM":"UTC","OBJECT_NAME":"STARLINK-2619","PERIAPSIS":"546.171","MEAN_ELEMENT_THEORY":"SGP4","RCS_SIZE":"LARGE"}];
